GPS BIIA-10 (PRN 32)    
1 20959U 90103A   15112.48629349 -.00000013  00000-0  00000+0 0  9997
2 20959  54.2598 196.5002 0112462   0.9010 359.1724  2.00550111178731
GPS BIIA-15 (PRN 26)    
1 22108U 92058A   15113.44252640 -.00000057  00000-0  00000+0 0  9997
2 22108  55.9384 310.4418 0227191 328.3705  61.3452  2.00554618165655
GPS BIIA-23 (PRN 04)    
1 22877U 93068A   15112.59206295  .00000012  00000-0  00000+0 0  9992
2 22877  53.8472 130.9306 0109731  59.7945  68.8402  2.00559677157450
GPS BIIA-26 (PRN 10)    
1 23953U 96041A   15113.19347396 -.00000020  00000-0  00000+0 0  9997
2 23953  53.9351 192.2558 0144504  52.6259 343.8090  2.00562413137538
GPS BIIR-2  (PRN 13)    
1 24876U 97035A   15113.33339681 -.00000022  00000-0  00000+0 0  9992
2 24876  55.8345 258.0973 0050387 120.2518 263.4996  2.00562512130078
GPS BIIR-3  (PRN 11)    
1 25933U 99055A   15112.91313077  .00000002  00000-0  10000-3 0  9997
2 25933  51.1629 112.1989 0154528  80.0646 281.6836  2.00556098113888
GPS BIIR-4  (PRN 20)    
1 26360U 00025A   15113.68923310 -.00000018  00000-0  10000-3 0  9991
2 26360  53.0731 187.6419 0054718  69.0286 291.6236  2.00318176109580
GPS BIIR-5  (PRN 28)    
1 26407U 00040A   15113.24031721 -.00000093  00000-0  00000+0 0  9996
2 26407  56.6523  15.7721 0197960 264.7777 358.2391  2.00561720108253
GPS BIIR-6  (PRN 14)    
1 26605U 00071A   15113.47206569  .00001372  00000-0  10000-3 0  9994
2 26605  55.4047 256.1254 0082163 247.2952 111.8105  2.00575576105844
GPS BIIR-7  (PRN 18)    
1 26690U 01004A   15113.47060197 -.00000023  00000-0  00000+0 0  9998
2 26690  53.0060 190.6575 0163090 247.2166 202.0971  2.00551562104258
GPS BIIR-8  (PRN 16)    
1 27663U 03005A   15113.21475524  .00001721  00000-0  10000-3 0  9998
2 27663  56.7328  15.4663 0082408  13.6149 346.6421  2.00588865 89621
GPS BIIR-9  (PRN 21)    
1 27704U 03010A   15113.28589088  .00000012  00000-0  00000+0 0  9995
2 27704  53.5036 130.8763 0227184 250.2530 131.2466  2.00574207 88414
GPS BIIR-10 (PRN 22)    
1 28129U 03058A   15113.39579076 -.00000023  00000-0  00000+0 0  9990
2 28129  52.8807 190.7310 0080137 242.9605 122.5918  2.00560788 83120
GPS BIIR-11 (PRN 19)    
1 28190U 04009A   15113.47968632 -.00000015  00000-0  00000+0 0  9995
2 28190  55.5330  77.1480 0111555  29.6408  79.7608  2.00558437 81298
GPS BIIR-12 (PRN 23)    
1 28361U 04023A   15113.06084281 -.00000024  00000-0  00000+0 0  9995
2 28361  54.3618 252.0552 0101491 206.7752 111.5513  2.00568378 79366
GPS BIIR-13 (PRN 02)    
1 28474U 04045A   15113.20533708  .00000013  00000-0  00000+0 0  9990
2 28474  53.9019 130.0279 0147886 229.9230 191.2138  2.00547856 76732
GPS BIIRM-1 (PRN 17)    
1 28874U 05038A   15113.32060330 -.00000020  00000-0  00000+0 0  9995
2 28874  55.7004  74.3054 0103286 245.3316   8.2524  2.00554694 70136
GPS BIIRM-2 (PRN 31)    
1 29486U 06042A   15113.59625859 -.00000060  00000-0  00000+0 0  9997
2 29486  55.8945 313.6132 0082744 328.9165  43.6324  2.00552878 62866
GPS BIIRM-3 (PRN 12)    
1 29601U 06052A   15113.33786828 -.00000094  00000-0  00000+0 0  9990
2 29601  56.7007  14.3896 0054036  30.4025 197.1252  2.00561261 61768
GPS BIIRM-4 (PRN 15)    
1 32260U 07047A   15113.30335017 -.00000027  00000-0  00000+0 0  9993
2 32260  53.4934 249.0833 0070357  20.7822 315.5030  2.00568558 55157
GPS BIIRM-5 (PRN 29)    
1 32384U 07062A   15113.24632897 -.00000019  00000-0  00000+0 0  9997
2 32384  55.7483  74.8430 0015036 314.4453 117.6327  2.00552032 53889
GPS BIIRM-6 (PRN 07)    
1 32711U 08012A   15112.74619667 -.00000063  00000-0  00000+0 0  9990
2 32711  55.6143 313.2115 0082506 203.8073 155.8177  2.00557780 52072
GPS BIIRM-8 (PRN 05)    
1 35752U 09043A   15113.17825561 -.00000019  00000-0  00000+0 0  9994
2 35752  54.2337 191.3806 0040281  19.1791 313.7702  2.00578425 41640
GPS BIIF-1  (PRN 25)    
1 36585U 10022A   15113.31299505 -.00000096  00000-0  00000+0 0  9992
2 36585  56.0432  11.7423 0043789  37.7502 140.5027  2.00561873 35911
GPS BIIF-2  (PRN 01)    
1 37753U 11036A   15112.78171407  .00000015  00000-0  00000+0 0  9996
2 37753  55.1264 132.1543 0040367  18.3571 222.5414  2.00564269 27579
GPS BIIF-3  (PRN 24)    
1 38833U 12053A   15113.43446556 -.00000060  00000-0  00000+0 0  9990
2 38833  54.6527 310.8761 0031521  16.3365 343.7708  2.00563238 18660
GPS BIIF-4  (PRN 27)    
1 39166U 13023A   15113.28708619 -.00000025  00000-0  10000-3 0  9998
2 39166  55.4069  71.5809 0022765   3.1502 356.8388  2.00561866 14188
GPS BIIF-5  (PRN 30)    
1 39533U 14008A   15112.78701040 -.00000068  00000-0  00000+0 0  9997
2 39533  54.7971 316.0644 0012181 173.4317 186.5969  2.00554745  8544
GPS BIIF-6  (PRN 06)    
1 39741U 14026A   15113.06804239  .00000015  00000-0  00000+0 0  9995
2 39741  55.1201 131.6553 0003368 232.9217 127.0818  2.00556768  6833
GPS BIIF-7  (PRN 09)    
1 40105U 14045A   15112.15868924 -.00000023  00000-0  00000+0 0  9992
2 40105  54.8759 251.5797 0002973 167.9458 192.0296  2.00569565  5267
GPS BIIF-8  (PRN 03)    
1 40294U 14068A   15113.53145115 -.00000022  00000-0  00000+0 0  9998
2 40294  54.9654 191.7428 0010657 214.1555 145.8452  2.00558973  3515
